#dP2020  3  8  0  0  0.00000000      97 __u+U IGS08 FIT  IAC
## 2096      0.00000000   900.00000000 58916 0.0000000000000
+  118   C01C02C03C04C05C06C07C08C09C10C11C12C13C14C16C19C20
+        C21C22C23C24C25C26C27C28C29C30C32C33C34C35C36C37C38
+        C39C40E01E02E03E04E05E07E08E09E11E12E13E14E15E18E19
+        E21E24E25E26E27E30E31E33E36G01G02G03G04G05G06G07G08
+        G09G10G11G12G13G14G15G16G17G18G19G20G21G22G23G24G25
+        G26G27G28G29G30G31G32J01J02J03J07R01R02R03R04R05R07
+        R08R09R11R12R13R14R15R16R17R18R19R20R21R22R23R26  0
++        14 12 12 13 12  8  8  8  7  8  7  7  7  7 10  7  7
++         7  7  7  7  7  8  7  7  7  7  7  7  8  8  8  8  0
++        12 11  4  4  4  4  4  4  4  4  4  4  4  4  4  4  4
++         4  4  4  4  4  4  4  4  4  3  3  3  3  3  3  3  3
++         3  3  3  3  3  3  3  3  3  3  3  3  3  3  3  3  3
++         3  3  3  3  3  3  3  0  8  8 14  6  5  5  5  5  5
++         5  5  5  5  7  5  5  6  5  5  6  6  5  5  5  7  0
%c M  cc GPS ccc cccc cccc cccc cccc ccccc ccccc ccccc ccccc
%c cc cc ccc ccc cccc cccc cccc cccc ccccc ccccc ccccc ccccc
%f  1.2500000  1.025000000  0.00000000000  0.000000000000000
%f  0.0000000  0.000000000  0.00000000000  0.000000000000000
%i    0    0    0    0      0      0      0      0         0
%i    0    0    0    0      0      0      0      0         0
/* INFORMATION & ANALYSIS CENTER (IAC)            FINAL DATA
/* S/V CLOCKS ARE ALIGNED TO GNSS TIME                      
/* G:C1WC2W R:C1PC2P E:C1XC5X C:C2IC6I J:C1CC2S             
/* PCV:IGS14_2091 OL/AL:FES2004  NONE     YN ORB:CoN CLK:CoN
*  2020 03 08 16 45  0.00000000
PC01 -32270.078061  27135.562149     21.207706    289.387305
PC02   4382.635997  41945.759334   1055.906676    495.913629
PC03 -14869.228576  39457.058502    915.157837      0.995392
PC04 -39596.242985  14447.889469    239.734088   -190.939565
PC05  21847.171843  36070.615154   1029.823284    -93.348124
PC06 -22048.886099  35883.301867  -4409.157018    241.203030
PC07  -8434.988186  30341.467265 -27623.584921   -128.263824
PC08 -18898.582680  18286.939788  32958.124745   -147.009928
PC09 -12287.836188  36209.653694 -17931.624446    387.302481
PC10   3655.760569  37290.079501 -18754.900149   -735.005836
PC11 -12986.675630  20787.977498  13360.303542   -228.020553
PC12 -23487.736897  14326.196756  -4572.208598    328.986785
PC13  -3212.824420  22920.704906  35331.468776    311.433393
PC14  -3596.708948  25631.211718  10392.702225    217.785685
PC16 -18371.295564  36968.578583  -8964.107463   -737.050777
PC19  -3002.272827 -27706.316474  -1565.737225    346.367111
PC20   8970.354641 -20216.752652 -17013.979023   -831.588008
PC21 -16029.689965    334.164323  22861.746269   -151.977259
PC22 -13416.651236 -19288.317202  15086.104888   -881.402500
PC23  22324.847563  15008.386462  -7432.117117   -914.949362
PC24 -14586.278330  10408.481345 -21397.052124   -911.597751
PC25   6409.399448  17963.772802 -20382.940353   -541.517642
PC26 -25815.767706  -2104.874567 -10349.225683    599.126884
PC27  23803.908452  -6835.541556  12826.810405    291.657484
PC28  13593.345700   9274.883899  22544.181135    282.606875
PC29   3747.318066 -20060.320624 -19032.741117    198.132059
PC30  19500.871317 -19521.132117  -4076.690471    283.567050
PC32  16018.410186   -498.783890 -22828.357708   -889.968919
PC33   3054.993316  27679.073623   1676.734929   -921.160589
PC34 -19340.789966  19634.403329   4473.838370   -531.041788
PC35 -13843.996551  -8943.220291 -22520.219372   -949.254275
PC36  -5728.100399 -18074.760266  20493.985278   -823.371115
PC37  25947.258447   3180.017843   9803.243585   -862.531198
PC38      0.000000      0.000000      0.000000 999999.999999
PC39 -16548.478688  38015.443937  -7941.825459 999999.999999
PC40   -172.321668  35342.305038 -22871.437554     24.455124
PE01   -584.930249  20297.241413 -21543.892368   -810.534815
PE02    522.628018 -20322.382981  21502.716785    117.975202
PE03   8715.848886 -28293.236029   -364.557368   -274.571595
PE04   5208.376660  23886.518090 -16683.884154   -480.966905
PE05  17687.424806 -16147.011704 -17395.225402   -398.987689
PE07 -16265.493357  -5352.438245  24150.654637   -351.373068
PE08  -5413.357596 -23702.359427  16894.441289   6209.636135
PE09  16193.269838   5083.295575 -24246.965337   6132.134930
PE11  26513.548908   2213.629773  12953.098722   1630.385331
PE12   9965.549702  13950.454662  24136.035107   5914.283991
PE13 -26415.054811  -2211.568063 -13171.558759    399.041319
PE14 -17524.713000 -10961.669594 -25118.788720   -932.920337
PE15 -10255.708083 -13726.916511 -24122.946878    874.688125
PE18  15494.492574   3354.280176  17465.574817  -1030.822290
PE19  -9998.963647  27758.745157   2404.862078     -1.220368
PE21 -16947.042559   5100.102853 -23732.158699   -586.819622
PE24  23525.496026  13489.019539  11879.506945   5570.931427
PE25  17027.512979  -4979.793242  23695.963349   -506.091702
PE26 -27005.330150  10643.238910   5815.888409   3442.716497
PE27 -23576.489148 -13256.511272 -12014.380953    266.532941
PE30 -16058.941467 -23879.746192   6880.232146   4083.384675
PE31  16339.856038  23755.251186  -6706.930437   -471.934738
PE33 -11951.295800  17202.492069  20932.015635   -469.681686
PE36  27082.744251 -10589.406744  -5489.446011    588.650134
PG01 -12457.570657 -13731.507423 -19351.962469   -319.284046
PG02 -11916.707456  14091.534674  19717.586035   -418.307482
PG03 -13144.656785 -23073.369582   1707.970039   -112.796864
PG04  -5726.988697 -16416.064378  20080.499667    -59.430183
PG05  -1826.581017  20703.590586  16288.767083     -8.791428
PG06 -22268.914464   7389.217853  12546.127219   -226.342759
PG07 -25340.839684  -6185.172481   6506.820333   -231.242341
PG08   3339.281433 -22590.061740 -13321.862681    -26.398322
PG09 -14127.502107  -6272.258600  21547.474090   -172.150783
PG10  16254.350816   -163.349737 -20966.039416   -270.590646
PG11   -975.066333 -17152.775511 -20797.588919   -339.768722
PG12   9934.799381  24725.465981   -874.353354    142.956093
PG13 -11763.811932  22450.623793  -7915.877398     -7.295251
PG14  18512.354818 -18021.929158  -5380.745883    -27.631698
PG15     24.620152  22700.053076 -13782.573769   -246.379183
PG16   3378.116850 -20460.312133  16114.831594   -132.773593
PG17 -19423.271315  10695.383649 -14161.154593    228.695154
PG18  -3373.561282 -15395.303414 -21894.234455      6.079915
PG19 -19724.414980  15973.985517  -8119.207385   -188.520193
PG20  20007.912131   9858.434238 -14657.861561    527.875681
PG21  25538.134579   4025.248592   6223.334220    -30.595250
PG22  -9195.181543 -24043.432965  -6569.579229   -785.390070
PG23  -7782.724970 -15524.233570  20361.143802   -131.127340
PG24  10803.059108  14455.633692 -19789.900788    -10.081103
PG25  16723.616605  18417.764565   9444.716407    -10.011572
PG26   9967.730857 -12952.104373  20864.964587    163.522751
PG27  11883.053385 -23255.006786  -3839.032369   -232.735576
PG28 -15109.814848    699.202159 -21230.269075    734.285497
PG29  11979.588002   8430.303783  22119.610208    -51.594921
PG30 -26195.173966   1297.517733  -4807.610283   -170.737558
PG31  20867.234266  -8533.350499  14361.995879    -28.116567
PG32  19134.005974 -11830.491474 -13937.373469    231.265817
PJ01      0.000000      0.000000      0.000000 999999.999999
PJ02 -24808.470338  15676.503428 -25839.865687     -1.740648
PJ03 -27947.277314  31503.759546   2087.554634     -0.974038
PJ07 -25385.633904  33677.607811    -18.987507      0.036833
PR01   3096.331650 -24819.901869  -5043.433841     58.247046
PR02  -6272.808612 -19444.144615  15275.432621    415.696310
PR03 -10861.729597  -2268.080242  23007.731054     11.165325
PR04  -9016.567381  16026.304655  17706.393504     41.296650
PR05  -2260.382699  25312.774340   2338.086871     46.378189
PR07  10866.040157   1734.787666 -22977.775344    -34.123312
PR08   9103.716987 -16015.482953 -17583.469077    -50.941862
PR09  20085.655718  15112.521600  -4129.381392    120.802635
PR11  12151.490587  -4867.171948  21893.901821    -16.030133
PR12  -3814.916734 -14153.866564  20888.637364    112.224845
PR13 -18542.680901 -15774.419910   7589.417166    -35.780944
PR14 -21943.561324  -8291.254685 -10024.375588     48.915866
PR15 -12812.686459   4029.448708 -21669.157592    106.090212
PR16   4573.177046  14447.511003 -20583.970418     -1.964064
PR17 -21027.778652   3672.553692 -13926.991025    307.330080
PR18 -22105.382779  12551.960523   2494.697847     27.768289
PR19 -11982.827036  14376.731290  17338.396134    -82.777181
PR20   7486.774733   7834.681330  23100.066083   -406.051097
PR21  21406.723929  -4245.810998  13228.116120   -109.904282
PR22  21065.876477 -13264.118462  -5241.360960    -17.031167
PR23   5550.106220 -13371.822007 -21001.358464    291.253885
PR26   3473.879348   9937.099112  23248.456079   -404.165440
EOF
